{"type":"FeatureCollection","features":[{"type":"Feature","id":1,"geometry":{"type":"LineString","coordinates":[[-87.681163923771962,42.081039215788266],[-87.684711923461279,42.078874552182825],[-87.685887669005524,42.067674048992608],[-87.697895027154203,42.061346486503247],[-87.70990000859004,42.055017644730412],[-87.710312190924725,42.012827981200935],[-87.706855705474268,41.986702776808123],[-87.704307458792854,41.976272623479666],[-87.693482064046364,41.963291388075532],[-87.696779917821502,41.951443094781879],[-87.695089995902677,41.943786318922598],[-87.685537752572969,41.936579863376657],[-87.675987659801933,41.929372619351035],[-87.666439716791615,41.922164587446687],[-87.656893922744132,41.914955768264399],[-87.657698716955665,41.905598988434079],[-87.652979613980264,41.901219992580046],[-87.643461042078371,41.900108381980722],[-87.637421767435953,41.88741408469825],[-87.629463083597699,41.889079665791179],[-87.610573009227792,41.889885296657063]]},"properties":{"OBJECTID":1,"Shape_Length":90120.358771434738,"system":"Mainstream Tunnel System, and McCook Reservoir"}},{"type":"Feature","id":2,"geometry":{"type":"LineString","coordinates":[[-87.779815747254233,42.051156953769649],[-87.783705254499651,42.051439345290035],[-87.791396004681872,42.041587197322976],[-87.795135925518053,42.038572250035209],[-87.794539827709173,42.025384459601746],[-87.798472037831687,42.02039254359218],[-87.797815665952911,42.014324370396224],[-87.793959543674831,42.010350803147595],[-87.79135363613284,42.004932658520453],[-87.783249423902404,42.001729694849182],[-87.772155130453399,41.996929372067143],[-87.772186402549735,41.993369554875741],[-87.771685164124776,41.99007083328857],[-87.76285458390781,41.989368035515234],[-87.754243947070478,41.983919035815475],[-87.750703699623344,41.984560377067808],[-87.74505129511553,41.984267848432772],[-87.735387623068107,41.978284627520978],[-87.720042334810586,41.978077319324129],[-87.704697170982541,41.977867960547066]]},"properties":{"OBJECTID":2,"Shape_Length":47995.791986345233,"system":"Mainstream Tunnel System, and McCook Reservoir"}},{"type":"Feature","id":3,"geometry":{"type":"LineString","coordinates":[[-87.852419830619723,41.759297967454131],[-87.842663428163391,41.768585541042277],[-87.83290420603916,41.777872255738941],[-87.823142162674912,41.787158110739078],[-87.813377296498132,41.796443105237351],[-87.793761874653185,41.803209121439174],[-87.769906393175148,41.810676258538038],[-87.746045416703481,41.818138396522457],[-87.732652212648617,41.822552197013778],[-87.719257183872713,41.826964420183614],[-87.705860330825828,41.831375065314923],[-87.692461653958887,41.835784131690751],[-87.678839418442436,41.840322209640512],[-87.665215274618447,41.84485865439801],[-87.658660750405787,41.8477211231097],[-87.64187504080931,41.850785782916688],[-87.631729948253152,41.859294736922799],[-87.637421767435953,41.88741408469825]]},"properties":{"OBJECTID":3,"Shape_Length":82591.315109490854,"system":"Mainstream Tunnel System, and McCook Reservoir"}},{"type":"Feature","id":4,"geometry":{"type":"LineString","coordinates":[[-87.656958518006064,41.825164071541785],[-87.656524041842914,41.832940910332482],[-87.662289374284526,41.837985191996374],[-87.665215274618447,41.84485865439801]]},"properties":{"OBJECTID":4,"Shape_Length":7883.1431050344336,"system":"Mainstream Tunnel System, and McCook Reservoir"}},{"type":"Feature","id":5,"geometry":{"type":"LineString","coordinates":[[-87.885844711051789,42.038885520226749],[-87.87620059227055,42.028868627845853],[-87.866559494581082,42.018850922801327],[-87.862174260249631,41.998875149131798],[-87.857791712571483,41.97889915244987],[-87.855742937406163,41.964405013284747],[-87.860132164124892,41.954122270699415],[-87.849938244001635,41.933477915519866],[-87.840096286578301,41.923939852899935],[-87.830257255067821,41.914400946759265],[-87.831711425009971,41.89380528478307],[-87.827101112678221,41.86612363313872],[-87.82937261020308,41.823940248157939],[-87.835052214687437,41.818954541363453],[-87.835868466408769,41.80458587705062],[-87.836811661996947,41.796546782152184],[-87.839825248054041,41.794186369387788],[-87.837412421408146,41.787187634815268],[-87.828227644755174,41.782321138282526]]},"properties":{"OBJECTID":5,"Shape_Length":100302.29999711379,"system":"Des Plaines Tunnel System"}},{"type":"Feature","id":6,"geometry":{"type":"LineString","coordinates":[[-87.866098683845138,41.86417924382247],[-87.846642386554038,41.864365348325428],[-87.827186008651751,41.864548156128208]]},"properties":{"OBJECTID":6,"Shape_Length":10600.456249154624,"system":"Des Plaines Tunnel System"}},{"type":"Feature","id":7,"geometry":{"type":"LineString","coordinates":[[-87.844064031857485,41.835480396049803],[-87.844502053107121,41.822402274505166],[-87.840694884576749,41.818672976327427],[-87.835052214687437,41.818954541363453]]},"properties":{"OBJECTID":7,"Shape_Length":8018.5938516351816,"system":"Des Plaines Tunnel System"}},{"type":"Feature","id":8,"geometry":{"type":"LineString","coordinates":[[-87.807737699147651,41.820720969530001],[-87.817286504963391,41.825743100771831],[-87.825860685112389,41.8257813011788],[-87.82937261020308,41.823940248157939]]},"properties":{"OBJECTID":8,"Shape_Length":6687.6333329460922,"system":"Des Plaines Tunnel System"}},{"type":"Feature","id":9,"geometry":{"type":"LineString","coordinates":[[-87.905096883810145,41.820534479516013],[-87.888627185984703,41.820387512444775],[-87.882660693806102,41.818592127052796],[-87.867665387218835,41.817435283276993],[-87.861431970917891,41.806017561207739],[-87.835788921057258,41.805986439607359]]},"properties":{"OBJECTID":9,"Shape_Length":21837.559658387458,"system":"Des Plaines Tunnel System"}},{"type":"Feature","id":10,"geometry":{"type":"LineString","coordinates":[[-87.835788921057258,41.805986439607359],[-87.820494182540074,41.805504546846436],[-87.814094519172684,41.795761249563704]]},"properties":{"OBJECTID":10,"Shape_Length":8129.7960683935717,"system":"Des Plaines Tunnel System"}},{"type":"Feature","id":11,"geometry":{"type":"LineString","coordinates":[[-87.885298639960439,41.828560129155385],[-87.888627185984703,41.820387512444775]]},"properties":{"OBJECTID":11,"Shape_Length":3113.2152704197065,"system":"Des Plaines Tunnel System"}},{"type":"Feature","id":12,"geometry":{"type":"LineString","coordinates":[[-87.96191700186742,42.070481511721383],[-87.958611419649358,42.060845753669206],[-87.950327390624864,42.055544420696961],[-87.944317094884369,42.054733108263825],[-87.945410201309315,42.020455779354648]]},"properties":{"OBJECTID":12,"Shape_Length":20743.022949875336,"system":"Upper Des Plaines Tunnel System and\u00A0Majewski Reservoir"}},{"type":"Feature","id":13,"geometry":{"type":"LineString","coordinates":[[-87.931616662377763,42.076840064492515],[-87.930695634291638,42.054554280510104],[-87.944317094884369,42.054733108263825]]},"properties":{"OBJECTID":13,"Shape_Length":11825.016715421591,"system":"Upper Des Plaines Tunnel System and\u00A0Majewski Reservoir"}},{"type":"Feature","id":14,"geometry":{"type":"LineString","coordinates":[[-87.913836060008094,42.062536720732119],[-87.923745225811686,42.062440662947537],[-87.923264474842668,42.05465982002481],[-87.930695634291638,42.054554280510104]]},"properties":{"OBJECTID":14,"Shape_Length":7548.0587759370064,"system":"Upper Des Plaines Tunnel System and\u00A0Majewski Reservoir"}},{"type":"Feature","id":15,"geometry":{"type":"LineString","coordinates":[[-87.540271603367515,41.729482090855143],[-87.544545398199602,41.717356013744066],[-87.554080555124017,41.701969131372209],[-87.556935981123942,41.699532625988866],[-87.557753422134667,41.660772116438096],[-87.56114753080648,41.656311806270978],[-87.563486399738821,41.651844328606835],[-87.562844496796657,41.646697567217366],[-87.559379382054885,41.642454829633543],[-87.559591428643529,41.639423519359575],[-87.564904974565835,41.636030851027279],[-87.574381655635307,41.637280537484706],[-87.578576712174808,41.639286033329093],[-87.596864919162471,41.638613512225099],[-87.615672749896191,41.63860061914054],[-87.615723332319121,41.602339764397506],[-87.61610774477046,41.583486264998712],[-87.614083810391065,41.575957617459444],[-87.628159774349726,41.573407613468476]]},"properties":{"OBJECTID":15,"Shape_Length":77372.45004834354,"system":"Calumet Tunnel System and  Thornton Reservoir"}},{"type":"Feature","id":16,"geometry":{"type":"LineString","coordinates":[[-87.596884963412322,41.575057582122902],[-87.614083810391065,41.575957617459444]]},"properties":{"OBJECTID":16,"Shape_Length":4717.4332861616431,"system":"Calumet Tunnel System and  Thornton Reservoir"}},{"type":"Feature","id":17,"geometry":{"type":"LineString","coordinates":[[-87.539656513193364,41.587994575109491],[-87.560701146360671,41.590643256198661],[-87.575498493209793,41.601949780179638],[-87.595609482977494,41.602936676795871],[-87.615721135374429,41.603920059866603]]},"properties":{"OBJECTID":17,"Shape_Length":22637.773400037291,"system":"Calumet Tunnel System and  Thornton Reservoir"}},{"type":"Feature","id":18,"geometry":{"type":"LineString","coordinates":[[-87.673254054081497,41.593981753716754],[-87.644574627238441,41.593947425361321],[-87.615895330835329,41.593905942768075]]},"properties":{"OBJECTID":18,"Shape_Length":15690.214693473392,"system":"Calumet Tunnel System and  Thornton Reservoir"}},{"type":"Feature","id":19,"geometry":{"type":"LineString","coordinates":[[-87.658947263924119,41.635302472919463],[-87.64796840569241,41.626403005906113],[-87.637070407617927,41.626601231352069],[-87.626393016935126,41.61598679736511],[-87.615719116931203,41.605371379795471]]},"properties":{"OBJECTID":19,"Shape_Length":17091.258156152242,"system":"Calumet Tunnel System and  Thornton Reservoir"}},{"type":"Feature","id":20,"geometry":{"type":"LineString","coordinates":[[-87.717517549809983,41.649476328672954],[-87.696421053846322,41.649493224885639],[-87.675324596512993,41.649506248885181],[-87.652579423241633,41.65583484073543],[-87.630431883189317,41.655305958123691],[-87.621376512306654,41.646954902671645],[-87.612323475028177,41.638603140280352]]},"properties":{"OBJECTID":20,"Shape_Length":32062.365330457145,"system":"Calumet Tunnel System and  Thornton Reservoir"}},{"type":"Feature","id":21,"geometry":{"type":"LineString","coordinates":[[-87.612226782329898,41.663895805740673],[-87.612323475028177,41.638603140280352]]},"properties":{"OBJECTID":21,"Shape_Length":9216.6276953969518,"system":"Calumet Tunnel System and  Thornton Reservoir"}},{"type":"Feature","id":22,"geometry":{"type":"LineString","coordinates":[[-87.598435245000502,41.655105830706432],[-87.612257572302312,41.65584783728336]]},"properties":{"OBJECTID":22,"Shape_Length":3787.1172512416515,"system":"Calumet Tunnel System and  Thornton Reservoir"}},{"type":"Feature","id":24,"geometry":{"type":"LineString","coordinates":[[-87.537138989327616,41.625915587092607],[-87.538964878504657,41.632932533968891],[-87.54431016647851,41.637357590257245],[-87.548860562290983,41.642452087765705],[-87.559379382054885,41.642454829633543]]},"properties":{"OBJECTID":24,"Shape_Length":9891.2261087873303,"system":"Calumet Tunnel System and  Thornton Reservoir"}}]}