{"type":"FeatureCollection","features":[{"type":"Feature","id":1,"geometry":{"type":"Point","coordinates":[-87.934775730539613,42.026312144178057]},"properties":{"OBJECTID":1,"type":"WRP","name":"Kirie WRP"}},{"type":"Feature","id":2,"geometry":{"type":"Point","coordinates":[-87.946477191729187,42.014047526513984]},"properties":{"OBJECTID":2,"type":"Reservoir","name":"Gloria Alitto Majewski Reservoir"}},{"type":"Feature","id":3,"geometry":{"type":"Point","coordinates":[-87.774543808956267,41.820656711438374]},"properties":{"OBJECTID":3,"type":"WRP","name":"Stickney WPR"}},{"type":"Feature","id":4,"geometry":{"type":"Point","coordinates":[-87.834945228941464,41.776627942565398]},"properties":{"OBJECTID":4,"type":"Reservoir","name":"McCook Reservoir"}},{"type":"Feature","id":5,"geometry":{"type":"Point","coordinates":[-87.601888941442979,41.664180343148729]},"properties":{"OBJECTID":5,"type":"WRP","name":"Calumet WRP"}},{"type":"Feature","id":6,"geometry":{"type":"Point","coordinates":[-87.628159774349726,41.573407613468476]},"properties":{"OBJECTID":6,"type":"Reservoir","name":"Thornton Composite Reservoir"}}]}